STARLINK-32744          
1 62509U 25003Y   26068.00696371  .00035310  00000+0  12858-2 0  9993
2 62509  43.0018 293.1311 0001370 268.9979  91.0716 15.27597765 66449
2025-313BC              
1 67298U 25313BC  26068.18968176  .00075331  00000+0  26410-2 0  9997
2 67298  97.3985 144.8110 0008478 328.9209  31.1528 15.29126358  7890
